SL-16 R/B               
1 22566U 93016B   26040.93306455 -.00000191  00000+0 -73784-4 0  9992
2 22566  71.0064 273.4820 0010363 351.8264   8.2688 14.15303421698244
COSMOS 2242             
1 22626U 93024A   26041.15452121  .00002115  00000+0  18375-3 0  9995
2 22626  82.5190 293.0532 0017547  41.9301 318.3261 14.96434018776274
SL-16 R/B               
1 22803U 93059B   26041.30309425  .00000043  00000+0  45029-4 0  9990
2 22803  70.9892  68.8814 0019491 254.1885 105.7090 14.17228081675659
ARIANE 40 R/B           
1 22830U 93061H   26041.18522799  .00000206  00000+0  91471-4 0  9993
2 22830  98.4976 110.6075 0010727  11.9618 348.1819 14.32846234690166
COSMOS 2278             
1 23087U 94023A   26040.94460419 -.00000104  00000+0 -29918-4 0  9996
2 23087  71.0500 233.1445 0006682  66.1712 294.0110 14.14363441640886
SL-16 R/B               
1 23088U 94023B   26041.21574643  .00000106  00000+0  79564-4 0  9995
2 23088  70.9996 128.5875 0004481 311.3814  48.6923 14.15003889642202
SL-16 R/B               
1 23343U 94074B   26041.12763532  .00000534  00000+0  78242-4 0  9999
2 23343  97.7146  73.0571 0005565 321.5614  87.1148 14.79374639683174
SL-16 R/B               
1 23405U 94077B   26041.20808495  .00000204  00000+0  12872-3 0  9998
2 23405  70.9817  50.3046 0004230 234.4842 125.5887 14.15557866612342
ARIANE 40+ R/B          
1 23561U 95021B   26041.22842087  .00000325  00000+0  11767-3 0  9994
2 23561  98.4555 113.0753 0006160 216.1555 213.0800 14.39752005615296
SL-16 R/B               
1 23705U 95058B   26040.93104861  .00000277  00000+0  16583-3 0  9999
2 23705  71.0190 238.5331 0012156 171.8216 188.3108 14.15493360563923
SL-16 R/B               
1 24298U 96051B   26040.97906923  .00000089  00000+0  74807-4 0  9999
2 24298  70.7565 233.8922 0017440 186.9813 173.1067 14.12407631517735
ORBVIEW 2 (SEASTAR)     
1 24883U 97037A   26041.02476118  .00000376  00000+0  14693-3 0  9994
2 24883  98.8518 204.6112 0002976 128.1845 231.9608 14.35473305504503
