CCSDS_OMM_VERS = 2.0
CREATION_DATE  = 
ORIGINATOR     = 

OBJECT_NAME    = SL-16 R/B
OBJECT_ID      = 1993-016B
CENTER_NAME    = EARTH
REF_FRAME      = TEME
TIME_SYSTEM    = UTC
MEAN_ELEMENT_THEORY = SGP/SGP4

EPOCH          = 2026-02-09T22:23:36.777120
MEAN_MOTION    = 14.15303421
ECCENTRICITY   = .0010363
INCLINATION    = 71.0064
RA_OF_ASC_NODE = 273.4820
ARG_OF_PERICENTER = 351.8264
MEAN_ANOMALY   = 8.2688

EPHEMERIS_TYPE = 0
CLASSIFICATION_TYPE = U
NORAD_CAT_ID   = 22566
ELEMENT_SET_NO = 999
REV_AT_EPOCH   = 69824
BSTAR          = -.73784E-4
MEAN_MOTION_DOT = -.191E-5
MEAN_MOTION_DDOT = 0

CCSDS_OMM_VERS = 2.0
CREATION_DATE  = 
ORIGINATOR     = 

OBJECT_NAME    = COSMOS 2242
OBJECT_ID      = 1993-024A
CENTER_NAME    = EARTH
REF_FRAME      = TEME
TIME_SYSTEM    = UTC
MEAN_ELEMENT_THEORY = SGP/SGP4

EPOCH          = 2026-02-10T03:42:30.632544
MEAN_MOTION    = 14.96434018
ECCENTRICITY   = .00175477
INCLINATION    = 82.5190
RA_OF_ASC_NODE = 293.0532
ARG_OF_PERICENTER = 41.9301
MEAN_ANOMALY   = 318.3261

EPHEMERIS_TYPE = 0
CLASSIFICATION_TYPE = U
NORAD_CAT_ID   = 22626
ELEMENT_SET_NO = 999
REV_AT_EPOCH   = 77627
BSTAR          = .18375315E-3
MEAN_MOTION_DOT = .2115E-4
MEAN_MOTION_DDOT = 0

CCSDS_OMM_VERS = 2.0
CREATION_DATE  = 
ORIGINATOR     = 

OBJECT_NAME    = SL-16 R/B
OBJECT_ID      = 1993-059B
CENTER_NAME    = EARTH
REF_FRAME      = TEME
TIME_SYSTEM    = UTC
MEAN_ELEMENT_THEORY = SGP/SGP4

EPOCH          = 2026-02-10T07:16:27.343200
MEAN_MOTION    = 14.17228081
ECCENTRICITY   = .00194913
INCLINATION    = 70.9892
RA_OF_ASC_NODE = 68.8814
ARG_OF_PERICENTER = 254.1885
MEAN_ANOMALY   = 105.7090

EPHEMERIS_TYPE = 0
CLASSIFICATION_TYPE = U
NORAD_CAT_ID   = 22803
ELEMENT_SET_NO = 999
REV_AT_EPOCH   = 67565
BSTAR          = .45028754E-4
MEAN_MOTION_DOT = .43E-6
MEAN_MOTION_DDOT = 0

CCSDS_OMM_VERS = 2.0
CREATION_DATE  = 
ORIGINATOR     = 

OBJECT_NAME    = ARIANE 40 R/B
OBJECT_ID      = 1993-061H
CENTER_NAME    = EARTH
REF_FRAME      = TEME
TIME_SYSTEM    = UTC
MEAN_ELEMENT_THEORY = SGP/SGP4

EPOCH          = 2026-02-10T04:26:43.698336
MEAN_MOTION    = 14.32846234
ECCENTRICITY   = .00107272
INCLINATION    = 98.4976
RA_OF_ASC_NODE = 110.6075
ARG_OF_PERICENTER = 11.9618
MEAN_ANOMALY   = 348.1819

EPHEMERIS_TYPE = 0
CLASSIFICATION_TYPE = U
NORAD_CAT_ID   = 22830
ELEMENT_SET_NO = 999
REV_AT_EPOCH   = 69016
BSTAR          = .9147076E-4
MEAN_MOTION_DOT = .206E-5
MEAN_MOTION_DDOT = 0

CCSDS_OMM_VERS = 2.0
CREATION_DATE  = 
ORIGINATOR     = 

OBJECT_NAME    = COSMOS 2278
OBJECT_ID      = 1994-023A
CENTER_NAME    = EARTH
REF_FRAME      = TEME
TIME_SYSTEM    = UTC
MEAN_ELEMENT_THEORY = SGP/SGP4

EPOCH          = 2026-02-09T22:40:13.802016
MEAN_MOTION    = 14.14363441
ECCENTRICITY   = .0006682
INCLINATION    = 71.0500
RA_OF_ASC_NODE = 233.1445
ARG_OF_PERICENTER = 66.1712
MEAN_ANOMALY   = 294.0110

EPHEMERIS_TYPE = 0
CLASSIFICATION_TYPE = U
NORAD_CAT_ID   = 23087
ELEMENT_SET_NO = 999
REV_AT_EPOCH   = 64088
BSTAR          = -.29918E-4
MEAN_MOTION_DOT = -.104E-5
MEAN_MOTION_DDOT = 0

CCSDS_OMM_VERS = 2.0
CREATION_DATE  = 
ORIGINATOR     = 

OBJECT_NAME    = SL-16 R/B
OBJECT_ID      = 1994-023B
CENTER_NAME    = EARTH
REF_FRAME      = TEME
TIME_SYSTEM    = UTC
MEAN_ELEMENT_THEORY = SGP/SGP4

EPOCH          = 2026-02-10T05:10:40.491552
MEAN_MOTION    = 14.15003889
ECCENTRICITY   = .00044812
INCLINATION    = 70.9996
RA_OF_ASC_NODE = 128.5875
ARG_OF_PERICENTER = 311.3814
MEAN_ANOMALY   = 48.6923

EPHEMERIS_TYPE = 0
CLASSIFICATION_TYPE = U
NORAD_CAT_ID   = 23088
ELEMENT_SET_NO = 999
REV_AT_EPOCH   = 64220
BSTAR          = .7956423E-4
MEAN_MOTION_DOT = .106E-5
MEAN_MOTION_DDOT = 0

CCSDS_OMM_VERS = 2.0
CREATION_DATE  = 
ORIGINATOR     = 

OBJECT_NAME    = SL-16 R/B
OBJECT_ID      = 1994-074B
CENTER_NAME    = EARTH
REF_FRAME      = TEME
TIME_SYSTEM    = UTC
MEAN_ELEMENT_THEORY = SGP/SGP4

EPOCH          = 2026-02-10T03:03:47.691648
MEAN_MOTION    = 14.79374639
ECCENTRICITY   = .00055654
INCLINATION    = 97.7146
RA_OF_ASC_NODE = 73.0571
ARG_OF_PERICENTER = 321.5614
MEAN_ANOMALY   = 87.1148

EPHEMERIS_TYPE = 0
CLASSIFICATION_TYPE = U
NORAD_CAT_ID   = 23343
ELEMENT_SET_NO = 999
REV_AT_EPOCH   = 68317
BSTAR          = .78242475E-4
MEAN_MOTION_DOT = .534E-5
MEAN_MOTION_DDOT = 0

CCSDS_OMM_VERS = 2.0
CREATION_DATE  = 
ORIGINATOR     = 

OBJECT_NAME    = SL-16 R/B
OBJECT_ID      = 1994-077B
CENTER_NAME    = EARTH
REF_FRAME      = TEME
TIME_SYSTEM    = UTC
MEAN_ELEMENT_THEORY = SGP/SGP4

EPOCH          = 2026-02-10T04:59:38.539680
MEAN_MOTION    = 14.15557866
ECCENTRICITY   = .00042301
INCLINATION    = 70.9817
RA_OF_ASC_NODE = 50.3046
ARG_OF_PERICENTER = 234.4842
MEAN_ANOMALY   = 125.5887

EPHEMERIS_TYPE = 0
CLASSIFICATION_TYPE = U
NORAD_CAT_ID   = 23405
ELEMENT_SET_NO = 999
REV_AT_EPOCH   = 61234
BSTAR          = .12872165E-3
MEAN_MOTION_DOT = .204E-5
MEAN_MOTION_DDOT = 0

CCSDS_OMM_VERS = 2.0
CREATION_DATE  = 
ORIGINATOR     = 

OBJECT_NAME    = ARIANE 40+ R/B
OBJECT_ID      = 1995-021B
CENTER_NAME    = EARTH
REF_FRAME      = TEME
TIME_SYSTEM    = UTC
MEAN_ELEMENT_THEORY = SGP/SGP4

EPOCH          = 2026-02-10T05:28:55.563168
MEAN_MOTION    = 14.39752005
ECCENTRICITY   = .000616
INCLINATION    = 98.4555
RA_OF_ASC_NODE = 113.0753
ARG_OF_PERICENTER = 216.1555
MEAN_ANOMALY   = 213.0800

EPHEMERIS_TYPE = 0
CLASSIFICATION_TYPE = U
NORAD_CAT_ID   = 23561
ELEMENT_SET_NO = 999
REV_AT_EPOCH   = 61529
BSTAR          = .11766544E-3
MEAN_MOTION_DOT = .325E-5
MEAN_MOTION_DDOT = 0

CCSDS_OMM_VERS = 2.0
CREATION_DATE  = 
ORIGINATOR     = 

OBJECT_NAME    = SL-16 R/B
OBJECT_ID      = 1995-058B
CENTER_NAME    = EARTH
REF_FRAME      = TEME
TIME_SYSTEM    = UTC
MEAN_ELEMENT_THEORY = SGP/SGP4

EPOCH          = 2026-02-09T22:20:42.599904
MEAN_MOTION    = 14.15493360
ECCENTRICITY   = .0012156
INCLINATION    = 71.0190
RA_OF_ASC_NODE = 238.5331
ARG_OF_PERICENTER = 171.8216
MEAN_ANOMALY   = 188.3108

EPHEMERIS_TYPE = 0
CLASSIFICATION_TYPE = U
NORAD_CAT_ID   = 23705
ELEMENT_SET_NO = 999
REV_AT_EPOCH   = 56392
BSTAR          = .16583E-3
MEAN_MOTION_DOT = .277E-5
MEAN_MOTION_DDOT = 0

CCSDS_OMM_VERS = 2.0
CREATION_DATE  = 
ORIGINATOR     = 

OBJECT_NAME    = SL-16 R/B
OBJECT_ID      = 1996-051B
CENTER_NAME    = EARTH
REF_FRAME      = TEME
TIME_SYSTEM    = UTC
MEAN_ELEMENT_THEORY = SGP/SGP4

EPOCH          = 2026-02-09T23:29:51.581472
MEAN_MOTION    = 14.12407631
ECCENTRICITY   = .00174406
INCLINATION    = 70.7565
RA_OF_ASC_NODE = 233.8922
ARG_OF_PERICENTER = 186.9813
MEAN_ANOMALY   = 173.1067

EPHEMERIS_TYPE = 0
CLASSIFICATION_TYPE = U
NORAD_CAT_ID   = 24298
ELEMENT_SET_NO = 999
REV_AT_EPOCH   = 51773
BSTAR          = .74806819E-4
MEAN_MOTION_DOT = .89E-6
MEAN_MOTION_DDOT = 0

CCSDS_OMM_VERS = 2.0
CREATION_DATE  = 
ORIGINATOR     = 

OBJECT_NAME    = ORBVIEW 2 (SEASTAR)
OBJECT_ID      = 1997-037A
CENTER_NAME    = EARTH
REF_FRAME      = TEME
TIME_SYSTEM    = UTC
MEAN_ELEMENT_THEORY = SGP/SGP4

EPOCH          = 2026-02-10T00:35:39.365952
MEAN_MOTION    = 14.35473305
ECCENTRICITY   = .00029766
INCLINATION    = 98.8518
RA_OF_ASC_NODE = 204.6112
ARG_OF_PERICENTER = 128.1845
MEAN_ANOMALY   = 231.9608

EPHEMERIS_TYPE = 0
CLASSIFICATION_TYPE = U
NORAD_CAT_ID   = 24883
ELEMENT_SET_NO = 999
REV_AT_EPOCH   = 50450
BSTAR          = .14693403E-3
MEAN_MOTION_DOT = .376E-5
MEAN_MOTION_DDOT = 0

